NORAD_CAT_ID,OBJECT_NAME,OBJECT_TYPE,EPOCH,MEAN_MOTION,ECCENTRICITY,INCLINATION,RA_OF_ASC_NODE,ARG_OF_PERICENTER,MEAN_ANOMALY,BSTAR,MEAN_MOTION_DOT,MEAN_MOTION_DDOT,TLE_LINE0,TLE_LINE1,TLE_LINE2,SEMIMAJOR_AXIS,PERIOD,APOGEE,PERIGEE,DECAYED
50839.0,STARLINK-3320,PAYLOAD,2023-08-26 15:31:58,15.08840833,0.0001335,53.219,16.287,104.6837,255.4303,7.271e-05,8.69e-06,0.0,0 STARLINK-3320,1 50839U 22001AN  23238.64720459  .00000869  00000-0  72710-4 0  9999,2 50839  53.2190  16.2870 0001335 104.6837 255.4303 15.08840833 90452,6917.878,95.438,540.666,538.819,0.0
50839.0,STARLINK-3320,PAYLOAD,2023-08-27 09:01:12,15.08844144,0.0001322,53.2191,13.0182,85.0555,275.0588,5.9193e-05,6.54e-06,0.0,0 STARLINK-3320,1 50839U 22001AN  23239.37584425  .00000654  00000-0  59193-4 0  9993,2 50839  53.2191  13.0182 0001322  85.0555 275.0588 15.08844144 90563,6917.868,95.437,540.647,538.818,0.0
50839.0,STARLINK-3320,PAYLOAD,2023-08-27 15:22:45,15.08844475,0.000136,53.2196,11.8281,98.263,261.8517,7.6183e-05,9.25e-06,0.0,0 STARLINK-3320,1 50839U 22001AN  23239.64080242  .00000925  00000-0  76183-4 0  9990,2 50839  53.2196  11.8281 0001360  98.2630 261.8517 15.08844475 91884,6917.867,95.437,540.673,538.791,0.0
50839.0,STARLINK-3320,PAYLOAD,2023-08-28 08:52:00,15.08837781,0.0001445,53.2202,8.5572,92.1014,268.0144,4.4766e-05,4.25e-06,0.0,0 STARLINK-3320,1 50839U 22001AN  23240.36944838  .00000425  00000-0  44766-4 0  9998,2 50839  53.2202   8.5572 0001445  92.1014 268.0144 15.08837781 91990,6917.887,95.438,540.752,538.753,0.0
50839.0,STARLINK-3320,PAYLOAD,2023-08-28 13:38:09,15.0883669,0.0001424,53.2201,7.6656,87.6375,272.478,2.8937e-05,1.73e-06,0.0,0 STARLINK-3320,1 50839U 22001AN  23240.56816950  .00000173  00000-0  28937-4 0  9995,2 50839  53.2201   7.6656 0001424  87.6375 272.4780 15.08836690 90743,6917.891,95.438,540.741,538.77,0.0
50839.0,STARLINK-3320,PAYLOAD,2023-08-29 15:04:19,15.08844276,0.000139,53.2202,2.9059,101.9664,258.1484,5.2323e-05,5.45e-06,0.0,0 STARLINK-3320,1 50839U 22001AN  23241.62800433  .00000545  00000-0  52323-4 0  9991,2 50839  53.2202   2.9059 0001390 101.9664 258.1484 15.08844276 92183,6917.867,95.437,540.694,538.771,0.0
50839.0,STARLINK-3320,PAYLOAD,2023-08-30 08:33:34,15.08832642,0.000137,53.2191,359.6352,97.6553,262.4595,6.2255e-05,7.03e-06,0.0,0 STARLINK-3320,1 50839U 22001AN  23242.35665243  .00000703  00000-0  62255-4 0  9991,2 50839  53.2191 359.6352 0001370  97.6553 262.4595 15.08832642 92291,6917.903,95.438,540.716,538.82,0.0
50839.0,STARLINK-3320,PAYLOAD,2023-08-30 14:55:06,15.08840046,0.0001331,53.2193,358.4468,96.0405,264.0739,0.00010846,1.439e-05,0.0,0 STARLINK-3320,1 50839U 22001AN  23242.62160774  .00001439  00000-0  10846-3 0  9995,2 50839  53.2193 358.4468 0001331  96.0405 264.0739 15.08840046 92334,6917.88,95.438,540.666,538.824,0.0
50839.0,STARLINK-3320,PAYLOAD,2023-08-31 08:24:22,15.08832992,0.0001265,53.2193,355.1751,90.4228,269.6909,1.3781e-05,-6.9e-07,0.0,0 STARLINK-3320,1 50839U 22001AN  23243.35025557 -.00000069  00000-0  13781-4 0  9996,2 50839  53.2193 355.1751 0001265  90.4228 269.6909 15.08832992 92443,6917.902,95.438,540.642,538.892,0.0
50839.0,STARLINK-3320,PAYLOAD,2023-09-01 00:18:13,15.08841438,0.0001488,53.2202,352.2022,95.0286,265.0876,-1.1432e-05,-4.7e-06,0.0,0 STARLINK-3320,1 50839U 22001AN  23244.01265193 -.00000470  00000-0 -11432-4 0  9990,2 50839  53.2202 352.2022 0001488  95.0286 265.0876 15.08841438 92544,6917.876,95.437,540.77,538.712,0.0
50839.0,STARLINK-3320,PAYLOAD,2023-09-01 08:15:09,15.08835331,0.0001334,53.2196,350.7151,96.7548,263.3596,8.0843e-05,9.99e-06,0.0,0 STARLINK-3320,1 50839U 22001AN  23244.34385432  .00000999  00000-0  80843-4 0  9991,2 50839  53.2196 350.7151 0001334  96.7548 263.3596 15.08835331 91310,6917.895,95.438,540.683,538.837,0.0
50839.0,STARLINK-3320,PAYLOAD,2023-09-01 16:12:03,15.0885615,0.0001362,53.2189,349.228,100.0393,260.0753,-1.0144e-05,-4.49e-06,0.0,0 STARLINK-3320,1 50839U 22001AN  23244.67504221 -.00000449  00000-0 -10144-4 0  9995,2 50839  53.2189 349.2280 0001362 100.0393 260.0753 15.08856150 92644,6917.831,95.437,540.638,538.754,0.0
50839.0,STARLINK-3320,PAYLOAD,2023-09-02 09:41:19,15.08838215,0.0001553,53.2177,345.9553,88.6965,271.4205,0.00010726,1.419e-05,0.0,0 STARLINK-3320,1 50839U 22001AN  23245.40369290  .00001419  00000-0  10726-3 0  9993,2 50839  53.2177 345.9553 0001553  88.6965 271.4205 15.08838215 92757,6917.886,95.438,540.825,538.676,0.0
50839.0,STARLINK-3320,PAYLOAD,2023-09-02 12:52:04,15.08843815,0.0001253,53.218,345.3608,94.3784,265.7352,9.1308e-05,1.166e-05,0.0,0 STARLINK-3320,1 50839U 22001AN  23245.53616885  .00001166  00000-0  91308-4 0  9997,2 50839  53.2180 345.3608 0001253  94.3784 265.7352 15.08843815 91497,6917.869,95.437,540.601,538.867,0.0
50839.0,STARLINK-3320,PAYLOAD,2023-09-02 16:02:51,15.0884623,0.0001263,53.2185,344.7663,91.4017,268.712,0.00011882,1.604e-05,0.0,0 STARLINK-3320,1 50839U 22001AN  23245.66864673  .00001604  00000-0  11882-3 0  9996,2 50839  53.2185 344.7663 0001263  91.4017 268.7120 15.08846230 92798,6917.861,95.437,540.6,538.853,0.0
50839.0,STARLINK-3320,PAYLOAD,2023-09-03 12:42:51,15.08849687,0.0001213,53.2183,340.901,90.9506,269.1625,0.00015555,2.189e-05,0.0,0 STARLINK-3320,1 50839U 22001AN  23246.52976073  .00002189  00000-0  15555-3 0  9990,2 50839  53.2183 340.9010 0001213  90.9506 269.1625 15.08849687 91649,6917.851,95.437,540.555,538.877,0.0
50839.0,STARLINK-3320,PAYLOAD,2023-09-03 23:50:33,15.08842671,0.0001372,53.2184,338.8197,87.9265,272.1885,7.4677e-05,9.01e-06,0.0,0 STARLINK-3320,1 50839U 22001AN  23246.99344579  .00000901  00000-0  74677-4 0  9992,2 50839  53.2184 338.8197 0001372  87.9265 272.1885 15.08842671 92993,6917.872,95.437,540.686,538.788,0.0
50839.0,STARLINK-3320,PAYLOAD,2023-09-04 09:22:53,15.08826631,0.000128,53.2182,337.0355,95.5949,264.5189,-0.00010753,-1.998e-05,0.0,0 STARLINK-3320,1 50839U 22001AN  23247.39090248 -.00001998  00000-0 -10753-3 0  9991,2 50839  53.2182 337.0355 0001280  95.5949 264.5189 15.08826631 93058,6917.921,95.438,540.672,538.901,0.0
50839.0,STARLINK-3320,PAYLOAD,2023-09-04 23:41:21,15.08833956,0.000125,53.2185,334.3587,103.4526,256.6606,-4.4109e-05,-9.9e-06,0.0,0 STARLINK-3320,1 50839U 22001AN  23247.98705811 -.00000990  00000-0 -44109-4 0  9999,2 50839  53.2185 334.3587 0001250 103.4526 256.6606 15.08833956 93149,6917.899,95.438,540.629,538.899,0.0
50839.0,STARLINK-3320,PAYLOAD,2023-09-05 09:13:40,15.0884523,0.0001283,53.2181,332.5751,96.7303,263.3835,-1.2307e-05,-4.84e-06,0.0,0 STARLINK-3320,1 50839U 22001AN  23248.38449194 -.00000484  00000-0 -12307-4 0  9996,2 50839  53.2181 332.5751 0001283  96.7303 263.3835 15.08845230 93205,6917.864,95.437,540.617,538.842,0.0
50839.0,STARLINK-3320,PAYLOAD,2023-09-06 09:04:27,15.08835028,0.0001238,53.2181,328.115,101.353,258.7601,0.00029732,4.446e-05,0.0,0 STARLINK-3320,1 50839U 22001AN  23249.37809595  .00004446  00000-0  29732-3 0  9990,2 50839  53.2181 328.1150 0001238 101.3530 258.7601 15.08835028 93353,6917.896,95.438,540.617,538.904,0.0
50839.0,STARLINK-3320,PAYLOAD,2023-09-07 08:55:15,15.08833902,0.0001163,53.2176,323.6551,87.169,272.9435,5.2091e-05,5.41e-06,0.0,0 STARLINK-3320,1 50839U 22001AN  23250.37170467  .00000541  00000-0  52091-4 0  9998,2 50839  53.2176 323.6551 0001163  87.1690 272.9435 15.08833902 93506,6917.899,95.438,540.569,538.959,0.0
50839.0,STARLINK-3320,PAYLOAD,2023-09-08 10:21:24,15.0884735,0.000117,53.2178,318.8984,87.9764,272.1362,-2.4829e-05,-6.83e-06,0.0,0 STARLINK-3320,1 50839U 22001AN  23251.43153427 -.00000683  00000-0 -24829-4 0  9990,2 50839  53.2178 318.8984 0001170  87.9764 272.1362 15.08847350 93662,6917.858,95.437,540.532,538.914,0.0
50839.0,STARLINK-3320,PAYLOAD,2023-09-08 11:56:47,15.08847754,0.0001245,53.2174,318.6001,85.9576,274.1558,0.00010786,1.429e-05,0.0,0 STARLINK-3320,1 50839U 22001AN  23251.49777452  .00001429  00000-0  10786-3 0  9999,2 50839  53.2174 318.6001 0001245  85.9576 274.1558 15.08847754 92394,6917.857,95.437,540.583,538.86,0.0
50839.0,STARLINK-3320,PAYLOAD,2023-09-08 16:42:56,15.08852121,0.0001275,53.2173,317.7067,89.5906,270.5232,0.00019079,2.751e-05,0.0,0 STARLINK-3320,1 50839U 22001AN  23251.69649178  .00002751  00000-0  19079-3 0  9997,2 50839  53.2173 317.7067 0001275  89.5906 270.5232 15.08852121 92422,6917.843,95.437,540.59,538.826,0.0
50839.0,STARLINK-3320,PAYLOAD,2023-09-08 23:04:30,15.08829195,0.0001328,53.2168,316.518,88.8679,271.2465,-1.4721e-05,-5.22e-06,0.0,0 STARLINK-3320,1 50839U 22001AN  23251.96146347 -.00000522  00000-0 -14721-4 0  9993,2 50839  53.2168 316.5180 0001328  88.8679 271.2465 15.08829195 93744,6917.913,95.438,540.697,538.86,0.0
50839.0,STARLINK-3320,PAYLOAD,2023-09-09 10:12:12,15.08840016,0.0001383,53.2163,314.4361,87.6416,272.4734,0.00015427,2.168e-05,0.0,0 STARLINK-3320,1 50839U 22001AN  23252.42514145  .00002168  00000-0  15427-3 0  9999,2 50839  53.2163 314.4361 0001383  87.6416 272.4734 15.08840016 93819,6917.88,95.438,540.702,538.789,0.0
50839.0,STARLINK-3320,PAYLOAD,2023-09-09 11:47:35,15.08842093,0.0001379,53.2162,314.1388,87.8558,272.2592,0.00025242,3.732e-05,0.0,0 STARLINK-3320,1 50839U 22001AN  23252.49138091  .00003732  00000-0  25242-3 0  9992,2 50839  53.2162 314.1388 0001379  87.8558 272.2592 15.08842093 92544,6917.874,95.437,540.693,538.785,0.0
50839.0,STARLINK-3320,PAYLOAD,2023-09-10 10:02:59,15.08849481,0.0001478,53.2159,309.9759,86.6031,273.513,0.00062292,9.642e-05,0.0,0 STARLINK-3320,1 50839U 22001AN  23253.41874183  .00009642  00000-0  62292-3 0  9996,2 50839  53.2159 309.9759 0001478  86.6031 273.5130 15.08849481 92682,6917.851,95.437,540.739,538.694,0.0
50839.0,STARLINK-3320,PAYLOAD,2023-09-10 21:10:41,15.08848766,0.0001511,53.2156,307.8944,85.0593,275.0571,0.00041513,6.327e-05,0.0,0 STARLINK-3320,1 50839U 22001AN  23253.88242085  .00006327  00000-0  41513-3 0  9997,2 50839  53.2156 307.8944 0001511  85.0593 275.0571 15.08848766 94038,6917.854,95.437,540.764,538.673,0.0
